[
  { "name": "Afeganistão", "code": "AF", "phoneCode": "+93" },
  { "name": "África do Sul", "code": "ZA", "phoneCode": "+27" },
  { "name": "Albânia", "code": "AL", "phoneCode": "+355" },
  { "name": "Alemanha", "code": "DE", "phoneCode": "+49" },
  { "name": "Andorra", "code": "AD", "phoneCode": "+376" },
  { "name": "Angola", "code": "AO", "phoneCode": "+244" },
  { "name": "Antígua e Barbuda", "code": "AG", "phoneCode": "+1-268" },
  { "name": "Arábia Saudita", "code": "SA", "phoneCode": "+966" },
  { "name": "Argélia", "code": "DZ", "phoneCode": "+213" },
  { "name": "Argentina", "code": "AR", "phoneCode": "+54" },
  { "name": "Armênia", "code": "AM", "phoneCode": "+374" },
  { "name": "Austrália", "code": "AU", "phoneCode": "+61" },
  { "name": "Áustria", "code": "AT", "phoneCode": "+43" },
  { "name": "Azerbaijão", "code": "AZ", "phoneCode": "+994" },
  { "name": "Bahamas", "code": "BS", "phoneCode": "+1-242" },
  { "name": "Bangladesh", "code": "BD", "phoneCode": "+880" },
  { "name": "Barbados", "code": "BB", "phoneCode": "+1-246" },
  { "name": "Bélgica", "code": "BE", "phoneCode": "+32" },
  { "name": "Belize", "code": "BZ", "phoneCode": "+501" },
  { "name": "Benin", "code": "BJ", "phoneCode": "+229" },
  { "name": "Bolívia", "code": "BO", "phoneCode": "+591" },
  { "name": "Brasil", "code": "BR", "phoneCode": "+55" },
  { "name": "Brunei", "code": "BN", "phoneCode": "+673" },
  { "name": "Bulgária", "code": "BG", "phoneCode": "+359" },
  { "name": "Burkina Faso", "code": "BF", "phoneCode": "+226" },
  { "name": "Burundi", "code": "BI", "phoneCode": "+257" },
  { "name": "Butão", "code": "BT", "phoneCode": "+975" },
  { "name": "Cabo Verde", "code": "CV", "phoneCode": "+238" },
  { "name": "Camarões", "code": "CM", "phoneCode": "+237" },
  { "name": "Camboja", "code": "KH", "phoneCode": "+855" },
  { "name": "Canadá", "code": "CA", "phoneCode": "+1" },
  { "name": "Catar", "code": "QA", "phoneCode": "+974" },
  { "name": "Cazaquistão", "code": "KZ", "phoneCode": "+7" },
  { "name": "Chade", "code": "TD", "phoneCode": "+235" },
  { "name": "Chile", "code": "CL", "phoneCode": "+56" },
  { "name": "China", "code": "CN", "phoneCode": "+86" },
  { "name": "Chipre", "code": "CY", "phoneCode": "+357" },
  { "name": "Colômbia", "code": "CO", "phoneCode": "+57" },
  { "name": "Comores", "code": "KM", "phoneCode": "+269" },
  { "name": "Congo", "code": "CG", "phoneCode": "+242" },
  { "name": "Costa Rica", "code": "CR", "phoneCode": "+506" },
  { "name": "Croácia", "code": "HR", "phoneCode": "+385" },
  { "name": "Cuba", "code": "CU", "phoneCode": "+53" },
  { "name": "Dinamarca", "code": "DK", "phoneCode": "+45" },
  { "name": "Egito", "code": "EG", "phoneCode": "+20" },
  { "name": "El Salvador", "code": "SV", "phoneCode": "+503" },
  { "name": "Emirados Árabes Unidos", "code": "AE", "phoneCode": "+971" },
  { "name": "Equador", "code": "EC", "phoneCode": "+593" },
  { "name": "Eritreia", "code": "ER", "phoneCode": "+291" },
  { "name": "Eslováquia", "code": "SK", "phoneCode": "+421" },
  { "name": "Eslovênia", "code": "SI", "phoneCode": "+386" },
  { "name": "Espanha", "code": "ES", "phoneCode": "+34" },
  { "name": "Estados Unidos", "code": "US", "phoneCode": "+1" },
  { "name": "Estônia", "code": "EE", "phoneCode": "+372" },
  { "name": "Etiópia", "code": "ET", "phoneCode": "+251" },
  { "name": "Filipinas", "code": "PH", "phoneCode": "+63" },
  { "name": "Finlândia", "code": "FI", "phoneCode": "+358" },
  { "name": "França", "code": "FR", "phoneCode": "+33" },
  { "name": "Gabão", "code": "GA", "phoneCode": "+241" },
  { "name": "Gâmbia", "code": "GM", "phoneCode": "+220" },
  { "name": "Gana", "code": "GH", "phoneCode": "+233" },
  { "name": "Geórgia", "code": "GE", "phoneCode": "+995" },
  { "name": "Grécia", "code": "GR", "phoneCode": "+30" },
  { "name": "Guatemala", "code": "GT", "phoneCode": "+502" },
  { "name": "Guiana", "code": "GY", "phoneCode": "+592" },
  { "name": "Guiné", "code": "GN", "phoneCode": "+224" },
  { "name": "Haiti", "code": "HT", "phoneCode": "+509" },
  { "name": "Honduras", "code": "HN", "phoneCode": "+504" },
  { "name": "Hungria", "code": "HU", "phoneCode": "+36" },
  { "name": "Islândia", "code": "IS", "phoneCode": "+354" },
  { "name": "Índia", "code": "IN", "phoneCode": "+91" },
  { "name": "Indonésia", "code": "ID", "phoneCode": "+62" },
  { "name": "Irã", "code": "IR", "phoneCode": "+98" },
  { "name": "Iraque", "code": "IQ", "phoneCode": "+964" },
  { "name": "Irlanda", "code": "IE", "phoneCode": "+353" },
  { "name": "Itália", "code": "IT", "phoneCode": "+39" },
  { "name": "Jamaica", "code": "JM", "phoneCode": "+1-876" },
  { "name": "Japão", "code": "JP", "phoneCode": "+81" },
  { "name": "Jordânia", "code": "JO", "phoneCode": "+962" },
  { "name": "Quênia", "code": "KE", "phoneCode": "+254" },
  { "name": "Kiribati", "code": "KI", "phoneCode": "+686" },
  { "name": "Kosovo", "code": "XK", "phoneCode": "+383" },
  { "name": "Kuwait", "code": "KW", "phoneCode": "+965" },
  { "name": "Laos", "code": "LA", "phoneCode": "+856" },
  { "name": "Letônia", "code": "LV", "phoneCode": "+371" },
  { "name": "Líbano", "code": "LB", "phoneCode": "+961" },
  { "name": "Lesoto", "code": "LS", "phoneCode": "+266" },
  { "name": "Libéria", "code": "LR", "phoneCode": "+231" },
  { "name": "Líbia", "code": "LY", "phoneCode": "+218" },
  { "name": "Liechtenstein", "code": "LI", "phoneCode": "+423" },
  { "name": "Lituânia", "code": "LT", "phoneCode": "+370" },
  { "name": "Luxemburgo", "code": "LU", "phoneCode": "+352" },
  { "name": "Macedônia do Norte", "code": "MK", "phoneCode": "+389" },
  { "name": "Madagáscar", "code": "MG", "phoneCode": "+261" },
  { "name": "Malásia", "code": "MY", "phoneCode": "+60" },
  { "name": "Malaui", "code": "MW", "phoneCode": "+265" },
  { "name": "Maldivas", "code": "MV", "phoneCode": "+960" },
  { "name": "Mali", "code": "ML", "phoneCode": "+223" },
  { "name": "Malta", "code": "MT", "phoneCode": "+356" },
  { "name": "Marrocos", "code": "MA", "phoneCode": "+212" },
  { "name": "Maurício", "code": "MU", "phoneCode": "+230" },
  { "name": "Mauritânia", "code": "MR", "phoneCode": "+222" },
  { "name": "México", "code": "MX", "phoneCode": "+52" },
  { "name": "Micronésia", "code": "FM", "phoneCode": "+691" },
  { "name": "Moçambique", "code": "MZ", "phoneCode": "+258" },
  { "name": "Moldávia", "code": "MD", "phoneCode": "+373" },
  { "name": "Mônaco", "code": "MC", "phoneCode": "+377" },
  { "name": "Mongólia", "code": "MN", "phoneCode": "+976" },
  { "name": "Montenegro", "code": "ME", "phoneCode": "+382" },
  { "name": "Namíbia", "code": "NA", "phoneCode": "+264" },
  { "name": "Nauru", "code": "NR", "phoneCode": "+674" },
  { "name": "Nepal", "code": "NP", "phoneCode": "+977" },
  { "name": "Nicarágua", "code": "NI", "phoneCode": "+505" },
  { "name": "Níger", "code": "NE", "phoneCode": "+227" },
  { "name": "Nigéria", "code": "NG", "phoneCode": "+234" },
  { "name": "Noruega", "code": "NO", "phoneCode": "+47" },
  { "name": "Nova Zelândia", "code": "NZ", "phoneCode": "+64" },
  { "name": "Omã", "code": "OM", "phoneCode": "+968" },
  { "name": "Países Baixos", "code": "NL", "phoneCode": "+31" },
  { "name": "Paquistão", "code": "PK", "phoneCode": "+92" },
  { "name": "Palau", "code": "PW", "phoneCode": "+680" },
  { "name": "Panamá", "code": "PA", "phoneCode": "+507" },
  { "name": "Papua Nova Guiné", "code": "PG", "phoneCode": "+675" },
  { "name": "Paraguai", "code": "PY", "phoneCode": "+595" },
  { "name": "Peru", "code": "PE", "phoneCode": "+51" },
  { "name": "Polônia", "code": "PL", "phoneCode": "+48" },
  { "name": "Portugal", "code": "PT", "phoneCode": "+351" },
  { "name": "Quirguistão", "code": "KG", "phoneCode": "+996" },
  { "name": "Reino Unido", "code": "GB", "phoneCode": "+44" },
  { "name": "República Centro-Africana", "code": "CF", "phoneCode": "+236" },
  { "name": "República Democrática do Congo", "code": "CD", "phoneCode": "+243" },
  { "name": "República Dominicana", "code": "DO", "phoneCode": "+1-809" },
  { "name": "República Tcheca", "code": "CZ", "phoneCode": "+420" },
  { "name": "Romênia", "code": "RO", "phoneCode": "+40" },
  { "name": "Ruanda", "code": "RW", "phoneCode": "+250" },
  { "name": "Rússia", "code": "RU", "phoneCode": "+7" },
  { "name": "Salomão", "code": "SB", "phoneCode": "+677" },
  { "name": "Samoa", "code": "WS", "phoneCode": "+685" },
  { "name": "San Marino", "code": "SM", "phoneCode": "+378" },
  { "name": "Santa Lúcia", "code": "LC", "phoneCode": "+1-758" },
  { "name": "São Cristóvão e Nevis", "code": "KN", "phoneCode": "+1-869" },
  { "name": "São Tomé e Príncipe", "code": "ST", "phoneCode": "+239" },
  { "name": "São Vicente e Granadinas", "code": "VC", "phoneCode": "+1-784" },
  { "name": "Senegal", "code": "SN", "phoneCode": "+221" },
  { "name": "Serra Leoa", "code": "SL", "phoneCode": "+232" },
  { "name": "Sérvia", "code": "RS", "phoneCode": "+381" },
  { "name": "Síria", "code": "SY", "phoneCode": "+963" },
  { "name": "Singapura", "code": "SG", "phoneCode": "+65" },
  { "name": "Somália", "code": "SO", "phoneCode": "+252" },
  { "name": "Sri Lanka", "code": "LK", "phoneCode": "+94" },
  { "name": "Sudão", "code": "SD", "phoneCode": "+249" },
  { "name": "Sudão do Sul", "code": "SS", "phoneCode": "+211" },
  { "name": "Suécia", "code": "SE", "phoneCode": "+46" },
  { "name": "Suíça", "code": "CH", "phoneCode": "+41" },
  { "name": "Suriname", "code": "SR", "phoneCode": "+597" },
  { "name": "Tailândia", "code": "TH", "phoneCode": "+66" },
  { "name": "Taiwan", "code": "TW", "phoneCode": "+886" },
  { "name": "Tajiquistão", "code": "TJ", "phoneCode": "+992" },
  { "name": "Tanzânia", "code": "TZ", "phoneCode": "+255" },
  { "name": "Timor-Leste", "code": "TL", "phoneCode": "+670" },
  { "name": "Togo", "code": "TG", "phoneCode": "+228" },
  { "name": "Tonga", "code": "TO", "phoneCode": "+676" },
  { "name": "Trinidad e Tobago", "code": "TT", "phoneCode": "+1-868" },
  { "name": "Tunísia", "code": "TN", "phoneCode": "+216" },
  { "name": "Turcomenistão", "code": "TM", "phoneCode": "+993" },
  { "name": "Turquia", "code": "TR", "phoneCode": "+90" },
  { "name": "Tuvalu", "code": "TV", "phoneCode": "+688" },
  { "name": "Ucrânia", "code": "UA", "phoneCode": "+380" },
  { "name": "Uganda", "code": "UG", "phoneCode": "+256" },
  { "name": "Uruguai", "code": "UY", "phoneCode": "+598" },
  { "name": "Uzbequistão", "code": "UZ", "phoneCode": "+998" },
  { "name": "Vanuatu", "code": "VU", "phoneCode": "+678" },
  { "name": "Vaticano", "code": "VA", "phoneCode": "+379" },
  { "name": "Venezuela", "code": "VE", "phoneCode": "+58" },
  { "name": "Vietnã", "code": "VN", "phoneCode": "+84" },
  { "name": "Zâmbia", "code": "ZM", "phoneCode": "+260" },
  { "name": "Zimbábue", "code": "ZW", "phoneCode": "+263" }
]